{
  "type": "FeatureCollection",
  "features": [
    {
      "type": "Feature",
      "properties": {
        "norad_id": 32195,
        "name": "FENGYUN 1C DEB",
        "group": "fengyun-1c-debris",
        "lat": 62.30130607958132,
        "lon": -29.739737683330294,
        "alt_km": 881.6710741771067,
        "timestamp": "2025-12-10T21:43:22.373804+00:00",
        "meta_object_name": "FENGYUN 1C DEB",
        "meta_object_id": "1999-025CUR",
        "meta_epoch": "2025-12-04T06:51:46.584576",
        "meta_mean_motion": 14.08440247,
        "meta_eccentricity": 0.0068891,
        "meta_inclination": 98.773,
        "meta_ra_of_asc_node": 340.9294,
        "meta_arg_of_pericenter": 324.3515,
        "meta_mean_anomaly": 35.3064,
        "meta_ephemeris_type": 0,
        "meta_classification_type": "U",
        "meta_norad_cat_id": 32195,
        "meta_element_set_no": 999,
        "meta_rev_at_epoch": 63863,
        "meta_bstar": 0.0010039,
        "meta_mean_motion_dot": 1.715e-05,
        "meta_mean_motion_ddot": 0,
        "tle_line1": "1 32195U 99025CUR 25338.28595584  .00001715  00000+0  10039-2 0  9990",
        "tle_line2": "2 32195  98.7730 340.9294 0068891 324.3515  35.3064 14.08440247638633"
      },
      "geometry": {
        "type": "Point",
        "coordinates": [
          -29.739737683330294,
          62.30130607958132
        ]
      }
    },
    {
      "type": "Feature",
      "properties": {
        "norad_id": 32197,
        "name": "FENGYUN 1C DEB",
        "group": "fengyun-1c-debris",
        "lat": 24.91952175794085,
        "lon": -110.23997736543724,
        "alt_km": 881.6464257713133,
        "timestamp": "2025-12-10T21:43:22.373814+00:00",
        "meta_object_name": "FENGYUN 1C DEB",
        "meta_object_id": "1999-025CUT",
        "meta_epoch": "2025-12-10T12:24:38.958912",
        "meta_mean_motion": 14.32658071,
        "meta_eccentricity": 0.01611781,
        "meta_inclination": 98.901,
        "meta_ra_of_asc_node": 253.5369,
        "meta_arg_of_pericenter": 236.4218,
        "meta_mean_anomaly": 307.9774,
        "meta_ephemeris_type": 0,
        "meta_classification_type": "U",
        "meta_norad_cat_id": 32197,
        "meta_element_set_no": 999,
        "meta_rev_at_epoch": 94391,
        "meta_bstar": 0.0006387504,
        "meta_mean_motion_dot": 1.954e-05,
        "meta_mean_motion_ddot": 0,
        "tle_line1": "1 32197U 99025CUT 25344.51711758  .00001954  00000+0  63875-3 0  9990",
        "tle_line2": "2 32197  98.9010 253.5369 0161178 236.4218 307.9774 14.32658071943914"
      },
      "geometry": {
        "type": "Point",
        "coordinates": [
          -110.23997736543724,
          24.91952175794085
        ]
      }
    },
    {
      "type": "Feature",
      "properties": {
        "norad_id": 32198,
        "name": "FENGYUN 1C DEB",
        "group": "fengyun-1c-debris",
        "lat": -5.011810499248218,
        "lon": -48.81147577652259,
        "alt_km": 893.2530677778923,
        "timestamp": "2025-12-10T21:43:22.373824+00:00",
        "meta_object_name": "FENGYUN 1C DEB",
        "meta_object_id": "1999-025CUU",
        "meta_epoch": "2025-12-05T16:24:25.007328",
        "meta_mean_motion": 14.08762004,
        "meta_eccentricity": 0.00945405,
        "meta_inclination": 98.3435,
        "meta_ra_of_asc_node": 127.0916,
        "meta_arg_of_pericenter": 312.942,
        "meta_mean_anomaly": 46.3848,
        "meta_ephemeris_type": 0,
        "meta_classification_type": "U",
        "meta_norad_cat_id": 32198,
        "meta_element_set_no": 999,
        "meta_rev_at_epoch": 56846,
        "meta_bstar": 0.0028001199,
        "meta_mean_motion_dot": 4.993e-05,
        "meta_mean_motion_ddot": 0,
        "tle_line1": "1 32198U 99025CUU 25339.68362277  .00004993  00000+0  28001-2 0  9998",
        "tle_line2": "2 32198  98.3435 127.0916 0094540 312.9420  46.3848 14.08762004568460"
      },
      "geometry": {
        "type": "Point",
        "coordinates": [
          -48.81147577652259,
          -5.011810499248218
        ]
      }
    },
    {
      "type": "Feature",
      "properties": {
        "norad_id": 32200,
        "name": "FENGYUN 1C DEB",
        "group": "fengyun-1c-debris",
        "lat": 52.34528732077445,
        "lon": 22.332639536440947,
        "alt_km": 848.4245619732956,
        "timestamp": "2025-12-10T21:43:22.373834+00:00",
        "meta_object_name": "FENGYUN 1C DEB",
        "meta_object_id": "1999-025CUW",
        "meta_epoch": "2025-12-10T09:35:54.874752",
        "meta_mean_motion": 14.15684712,
        "meta_eccentricity": 0.00395277,
        "meta_inclination": 98.7918,
        "meta_ra_of_asc_node": 33.4043,
        "meta_arg_of_pericenter": 296.5903,
        "meta_mean_anomaly": 63.1223,
        "meta_ephemeris_type": 0,
        "meta_classification_type": "U",
        "meta_norad_cat_id": 32200,
        "meta_element_set_no": 999,
        "meta_rev_at_epoch": 94330,
        "meta_bstar": 0.0014384186,
        "meta_mean_motion_dot": 2.798e-05,
        "meta_mean_motion_ddot": 0,
        "tle_line1": "1 32200U 99025CUW 25344.39994068  .00002798  00000+0  14384-2 0  9995",
        "tle_line2": "2 32200  98.7918  33.4043 0039527 296.5903  63.1223 14.15684712943303"
      },
      "geometry": {
        "type": "Point",
        "coordinates": [
          22.332639536440947,
          52.34528732077445
        ]
      }
    },
    {
      "type": "Feature",
      "properties": {
        "norad_id": 32203,
        "name": "FENGYUN 1C DEB",
        "group": "fengyun-1c-debris",
        "lat": 74.9499349876766,
        "lon": 83.72287360438479,
        "alt_km": 338.53870359332086,
        "timestamp": "2025-12-10T21:43:22.373844+00:00",
        "meta_object_name": "FENGYUN 1C DEB",
        "meta_object_id": "1999-025CUZ",
        "meta_epoch": "2025-12-10T10:22:15.935232",
        "meta_mean_motion": 15.40480148,
        "meta_eccentricity": 0.01455525,
        "meta_inclination": 97.0165,
        "meta_ra_of_asc_node": 236.0071,
        "meta_arg_of_pericenter": 100.0801,
        "meta_mean_anomaly": 261.6903,
        "meta_ephemeris_type": 0,
        "meta_classification_type": "U",
        "meta_norad_cat_id": 32203,
        "meta_element_set_no": 999,
        "meta_rev_at_epoch": 75062,
        "meta_bstar": 0.0010104092,
        "meta_mean_motion_dot": 0.00060153,
        "meta_mean_motion_ddot": 0,
        "tle_line1": "1 32203U 99025CUZ 25344.43212888  .00060153  00000+0  10104-2 0  9991",
        "tle_line2": "2 32203  97.0165 236.0071 0145552 100.0801 261.6903 15.40480148750623"
      },
      "geometry": {
        "type": "Point",
        "coordinates": [
          83.72287360438479,
          74.9499349876766
        ]
      }
    },
    {
      "type": "Feature",
      "properties": {
        "norad_id": 32205,
        "name": "FENGYUN 1C DEB",
        "group": "fengyun-1c-debris",
        "lat": 37.280715122409184,
        "lon": -17.818589423193973,
        "alt_km": 844.5357946702825,
        "timestamp": "2025-12-10T21:43:22.373855+00:00",
        "meta_object_name": "FENGYUN 1C DEB",
        "meta_object_id": "1999-025CVB",
        "meta_epoch": "2025-12-10T12:04:01.932960",
        "meta_mean_motion": 14.13909037,
        "meta_eccentricity": 0.00101139,
        "meta_inclination": 98.6781,
        "meta_ra_of_asc_node": 348.4675,
        "meta_arg_of_pericenter": 299.1004,
        "meta_mean_anomaly": 211.9711,
        "meta_ephemeris_type": 0,
        "meta_classification_type": "U",
        "meta_norad_cat_id": 32205,
        "meta_element_set_no": 999,
        "meta_rev_at_epoch": 94466,
        "meta_bstar": 0.00025240574,
        "meta_mean_motion_dot": 4.36e-06,
        "meta_mean_motion_ddot": 0,
        "tle_line1": "1 32205U 99025CVB 25344.50280015  .00000436  00000+0  25241-3 0  9995",
        "tle_line2": "2 32205  98.6781 348.4675 0010113 299.1004 211.9711 14.13909037944669"
      },
      "geometry": {
        "type": "Point",
        "coordinates": [
          -17.818589423193973,
          37.280715122409184
        ]
      }
    },
    {
      "type": "Feature",
      "properties": {
        "norad_id": 32209,
        "name": "FENGYUN 1C DEB",
        "group": "fengyun-1c-debris",
        "lat": 79.29452587539046,
        "lon": -128.99522464247403,
        "alt_km": 927.5494924001732,
        "timestamp": "2025-12-10T21:43:22.373865+00:00",
        "meta_object_name": "FENGYUN 1C DEB",
        "meta_object_id": "1999-025CVF",
        "meta_epoch": "2025-12-10T14:11:52.524960",
        "meta_mean_motion": 13.47158201,
        "meta_eccentricity": 0.03331294,
        "meta_inclination": 99.4208,
        "meta_ra_of_asc_node": 292.1327,
        "meta_arg_of_pericenter": 30.6163,
        "meta_mean_anomaly": 331.3956,
        "meta_ephemeris_type": 0,
        "meta_classification_type": "U",
        "meta_norad_cat_id": 32209,
        "meta_element_set_no": 999,
        "meta_rev_at_epoch": 89947,
        "meta_bstar": 0.0040665064,
        "meta_mean_motion_dot": 3.431e-05,
        "meta_mean_motion_ddot": 0,
        "tle_line1": "1 32209U 99025CVF 25344.59158015  .00003431  00000+0  40665-2 0  9996",
        "tle_line2": "2 32209  99.4208 292.1327 0333129  30.6163 331.3956 13.47158201899475"
      },
      "geometry": {
        "type": "Point",
        "coordinates": [
          -128.99522464247403,
          79.29452587539046
        ]
      }
    }
  ]
}